{
  "norad_id": 64129,
  "name": "STARLINK-11679 [DTC]",
  "history": [
    {
      "epoch": "2026-03-28T18:34:17.370624",
      "apogee_km": 357.55815408698163,
      "perigee_km": 355.29884205368853,
      "latitude_deg": 36.57475804531008,
      "longitude_deg": -52.81403264007531,
      "semi_major_axis_km": 6734.565498070335,
      "eccentricity": 0.00016774,
      "inclination_deg": 42.9986,
      "raan_deg": 218.5399,
      "arg_perigee_deg": 263.3133,
      "mean_anomaly_deg": 96.7544,
      "mean_motion_rev_day": 15.70863289
    }
  ]
}