{"fetched_at":"2026-03-29T16:36:15Z","count":15609,"tles":[{"name":"STARLINK-11679 [DTC]","line1":"1 64129U 25111G   26087.77381216  .00229394  00000+0  17406-2 0  9998","line2":"2 64129  42.9986 218.5399 0001677 263.3133  96.7544 15.70863289 49648","category":"Starlink"}]}